{"type": "FeatureCollection", "features": [
{"type": "Feature", "properties": {"layer": "water", "class": "river", "name": "Silver River"}, "geometry": {"type": "Polygon", "coordinates": [[[9.9932, 50.008], [9.99337, 50.0075], [9.99353, 50.007], [9.99367, 50.0065], [9.993782, 50.006], [9.993859, 50.0055], [9.993897, 50.005], [9.993892, 50.0045], [9.993847, 50.004], [9.993762, 50.0035], [9.993644, 50.003], [9.993499, 50.0025], [9.993337, 50.002], [9.993166, 50.0015], [9.992997, 50.001], [9.99284, 50.0005], [9.992705, 50.0], [9.9926, 49.9995], [9.99253, 49.999], [9.992501, 49.9985], [9.992513, 49.998], [9.992567, 49.9975], [9.992659, 49.997], [9.992783, 49.9965], [9.992932, 49.996], [9.993097, 49.9955], [9.993269, 49.995], [9.993436, 49.9945], [9.993589, 49.994], [9.993719, 49.9935], [9.993817, 49.993], [9.993879, 49.9925], [9.9939, 49.992], [9.9945, 49.992], [9.994479, 49.9925], [9.994417, 49.993], [9.994319, 49.9935], [9.994189, 49.994], [9.994036, 49.9945], [9.993869, 49.995], [9.993697, 49.9955], [9.993532, 49.996], [9.993383, 49.9965], [9.993259, 49.997], [9.993167, 49.9975], [9.993113, 49.998], [9.993101, 49.9985], [9.99313, 49.999], [9.9932, 49.9995], [9.993305, 50.0], [9.99344, 50.0005], [9.993597, 50.001], [9.993766, 50.0015], [9.993937, 50.002], [9.994099, 50.0025], [9.994244, 50.003], [9.994362, 50.0035], [9.994447, 50.004], [9.994492, 50.0045], [9.994497, 50.005], [9.994459, 50.0055], [9.994382, 50.006], [9.99427, 50.0065], [9.99413, 50.007], [9.99397, 50.0075], [9.9938, 50.008], [9.9932, 50.008]]]}},
{"type": "Feature", "properties": {"layer": "transportation", "class": "primary", "name": "Ring Road"}, "geometry": {"type": "LineString", "coordinates": [[9.9968, 49.9965], [10.0052, 49.9965], [10.006, 49.9973], [10.006, 50.0027], [10.0052, 50.0035], [9.9968, 50.0035], [9.996, 50.0027], [9.996, 49.9973], [9.9968, 49.9965]]}},
{"type": "Feature", "properties": {"layer": "transportation", "class": "minor", "name": "Mill Lane"}, "geometry": {"type": "LineString", "coordinates": [[9.998, 49.9965], [9.998, 50.0035]]}},
{"type": "Feature", "properties": {"layer": "transportation", "class": "secondary", "name": "Main Street"}, "geometry": {"type": "LineString", "coordinates": [[10.0, 49.9965], [10.0, 50.0035]]}},
{"type": "Feature", "properties": {"layer": "transportation", "class": "minor", "name": "Park Lane"}, "geometry": {"type": "LineString", "coordinates": [[10.002, 49.9965], [10.002, 50.0]]}},
{"type": "Feature", "properties": {"layer": "transportation", "class": "minor", "name": "Station Road"}, "geometry": {"type": "LineString", "coordinates": [[10.004, 49.9965], [10.004, 50.0035]]}},
{"type": "Feature", "properties": {"layer": "transportation", "class": "minor", "name": "Church Street"}, "geometry": {"type": "LineString", "coordinates": [[9.996, 49.998], [10.006, 49.998]]}},
{"type": "Feature", "properties": {"layer": "transportation", "class": "primary", "name": "Bridge Street"}, "geometry": {"type": "LineString", "coordinates": [[9.99, 50.0], [10.006, 50.0]]}},
{"type": "Feature", "properties": {"layer": "transportation", "class": "minor", "name": "North Street"}, "geometry": {"type": "LineString", "coordinates": [[9.996, 50.002], [10.0, 50.002]]}},
{"type": "Feature", "properties": {"layer": "landcover", "class": "grass", "subclass": "park", "name": "Central Park"}, "geometry": {"type": "Polygon", "coordinates": [[[10.0003, 50.0003], [10.0037, 50.0003], [10.0037, 50.0032], [10.0003, 50.0032], [10.0003, 50.0003]], [[10.0015, 50.0012], [10.0025, 50.0012], [10.0025, 50.0022], [10.0015, 50.0022], [10.0015, 50.0012]]]}},
{"type": "Feature", "properties": {"layer": "water", "class": "pond", "name": "Mill Pond"}, "geometry": {"type": "Polygon", "coordinates": [[[10.0017, 50.0014], [10.0023, 50.0014], [10.0023, 50.002], [10.0017, 50.002], [10.0017, 50.0014]]]}},
{"type": "Feature", "properties": {"layer": "landcover", "class": "wood", "subclass": "forest", "name": "Oak Wood"}, "geometry": {"type": "Polygon", "coordinates": [[[10.0065, 49.996], [10.0095, 49.9955], [10.01, 49.9938], [10.008, 49.993], [10.0062, 49.994], [10.0065, 49.996]]]}},
{"type": "Feature", "properties": {"layer": "transportation", "class": "minor", "name": "Willow Way"}, "geometry": {"type": "LineString", "coordinates": [[9.996, 50.003], [9.995563, 50.003488], [9.995125, 50.003957], [9.994688, 50.004389], [9.99425, 50.004768], [9.993813, 50.005079], [9.993375, 50.00531], [9.992938, 50.005452], [9.9925, 50.0055]]}},
{"type": "Feature", "properties": {"layer": "building", "render_height": "8"}, "geometry": {"type": "Polygon", "coordinates": [[[9.9965, 49.997], [9.9975, 49.997], [9.9975, 49.9976], [9.9965, 49.9976], [9.9965, 49.997]]]}},
{"type": "Feature", "properties": {"layer": "building", "render_height": "8"}, "geometry": {"type": "Polygon", "coordinates": [[[9.9985, 49.997], [9.9995, 49.997], [9.9995, 49.9976], [9.9985, 49.9976], [9.9985, 49.997]]]}},
{"type": "Feature", "properties": {"layer": "building", "render_height": "8"}, "geometry": {"type": "Polygon", "coordinates": [[[10.0005, 49.997], [10.0015, 49.997], [10.0015, 49.9976], [10.0005, 49.9976], [10.0005, 49.997]]]}},
{"type": "Feature", "properties": {"layer": "building", "render_height": "8"}, "geometry": {"type": "Polygon", "coordinates": [[[10.0025, 49.997], [10.0035, 49.997], [10.0035, 49.9976], [10.0025, 49.9976], [10.0025, 49.997]]]}},
{"type": "Feature", "properties": {"layer": "building", "render_height": "8"}, "geometry": {"type": "Polygon", "coordinates": [[[10.0045, 49.997], [10.0055, 49.997], [10.0055, 49.9976], [10.0045, 49.9976], [10.0045, 49.997]]]}},
{"type": "Feature", "properties": {"layer": "building", "render_height": "8"}, "geometry": {"type": "Polygon", "coordinates": [[[9.9985, 49.9985], [9.9995, 49.9985], [9.9995, 49.9991], [9.9985, 49.9991], [9.9985, 49.9985]]]}},
{"type": "Feature", "properties": {"layer": "building", "render_height": "8"}, "geometry": {"type": "Polygon", "coordinates": [[[10.0005, 49.9985], [10.0015, 49.9985], [10.0015, 49.9991], [10.0005, 49.9991], [10.0005, 49.9985]]]}},
{"type": "Feature", "properties": {"layer": "building", "render_height": "8"}, "geometry": {"type": "Polygon", "coordinates": [[[10.0025, 49.9985], [10.0035, 49.9985], [10.0035, 49.9991], [10.0025, 49.9991], [10.0025, 49.9985]]]}},
{"type": "Feature", "properties": {"layer": "building", "render_height": "8"}, "geometry": {"type": "Polygon", "coordinates": [[[10.0045, 49.9985], [10.0055, 49.9985], [10.0055, 49.9991], [10.0045, 49.9991], [10.0045, 49.9985]]]}},
{"type": "Feature", "properties": {"layer": "building", "render_height": "8"}, "geometry": {"type": "Polygon", "coordinates": [[[9.9965, 50.0005], [9.9975, 50.0005], [9.9975, 50.0011], [9.9965, 50.0011], [9.9965, 50.0005]]]}},
{"type": "Feature", "properties": {"layer": "building", "render_height": "8"}, "geometry": {"type": "Polygon", "coordinates": [[[9.9985, 50.0005], [9.9995, 50.0005], [9.9995, 50.0011], [9.9985, 50.0011], [9.9985, 50.0005]]]}},
{"type": "Feature", "properties": {"layer": "building", "render_height": "8"}, "geometry": {"type": "Polygon", "coordinates": [[[9.9985, 50.0025], [9.9995, 50.0025], [9.9995, 50.0031], [9.9985, 50.0031], [9.9985, 50.0025]]]}},
{"type": "Feature", "properties": {"layer": "place", "class": "town", "name": "Millbrook"}, "geometry": {"type": "Point", "coordinates": [10.001, 49.999]}},
{"type": "Feature", "properties": {"layer": "place", "class": "suburb", "name": "Old Town"}, "geometry": {"type": "Point", "coordinates": [9.999, 50.001]}},
{"type": "Feature", "properties": {"layer": "place", "class": "neighbourhood", "name": "Riverside"}, "geometry": {"type": "Point", "coordinates": [9.9915, 49.9975]}},
{"type": "Feature", "properties": {"layer": "poi", "class": "marketplace", "name": "Market Square"}, "geometry": {"type": "Point", "coordinates": [10.003, 49.999]}},
{"type": "Feature", "properties": {"layer": "poi", "class": "town_hall", "name": "Town Hall"}, "geometry": {"type": "Point", "coordinates": [10.001, 49.9983]}},
{"type": "Feature", "properties": {"layer": "poi", "class": "railway", "subclass": "station", "name": "Station"}, "geometry": {"type": "Point", "coordinates": [10.005, 49.9968]}},
{"type": "Feature", "properties": {"layer": "poi", "class": "library", "name": "Library"}, "geometry": {"type": "Point", "coordinates": [9.999, 49.9992]}}
]}
